OBJECT_NAME,OBJECT_ID,EPOCH,MEAN_MOTION,ECCENTRICITY,INCLINATION,RA_OF_ASC_NODE,ARG_OF_PERICENTER,MEAN_ANOMALY,EPHEMERIS_TYPE,CLASSIFICATION_TYPE,NORAD_CAT_ID,ELEMENT_SET_NO,REV_AT_EPOCH,BSTAR,MEAN_MOTION_DOT,MEAN_MOTION_DDOT
STARLINK-31115,2024-005B,2026-06-16T07:45:48.189888,15.27575319,.00014351,43.0017,23.1217,264.2018,95.8670,0,U,58729,999,13551,.7641594E-5,-.52E-6,0
STARLINK-31180,2024-005E,2026-06-16T21:05:06.029664,15.27579217,.0001211,43.0042,19.5707,253.2111,106.8608,0,U,58732,999,13560,.27491E-4,.494E-5,0
STARLINK-31164,2024-005F,2026-06-16T20:29:56.322240,15.27584131,.0001271,43.0012,19.3786,240.7506,119.3218,0,U,58733,999,13560,.56708E-4,.1299E-4,0
STARLINK-31152,2024-005G,2026-06-16T20:35:29.421888,15.27585124,.0001673,43.0046,19.4070,267.7417,92.3244,0,U,58734,999,13561,.81015E-4,.1968E-4,0
STARLINK-31157,2024-005H,2026-06-16T20:41:02.640768,15.27580847,.0002252,43.0100,19.4386,276.4515,83.6080,0,U,58735,999,13561,.34288E-4,.681E-5,0
STARLINK-31076,2024-005J,2026-06-16T20:46:36.263136,15.27570307,.0001768,43.0063,19.4622,282.4361,77.6293,0,U,58736,999,13565,-.229E-4,-.892E-5,0
STARLINK-31101,2024-005K,2026-06-16T21:01:23.777760,15.27579150,.0001342,43.0035,19.5370,270.5991,89.4707,0,U,58737,999,13560,.23406E-4,.382E-5,0
STARLINK-31108,2024-005L,2026-06-16T20:52:08.859072,15.27580966,.0001599,43.0032,19.4897,262.4403,97.6267,0,U,58738,999,13560,.38453E-4,.796E-5,0
STARLINK-31042,2024-005M,2026-06-16T21:06:56.816064,15.27576914,.0001596,43.0020,19.5599,279.8985,80.1686,0,U,58739,999,13561,.20408E-4,.299E-5,0
STARLINK-31159,2024-005N,2026-06-16T20:28:05.393280,15.27584726,.0001153,43.0029,19.3647,280.5769,79.4953,0,U,58740,999,13570,.60758E-4,.141E-4,0
STARLINK-31148,2024-005P,2026-06-16T20:39:12.124800,15.27577555,.000145,43.0033,19.4363,260.1575,99.9113,0,U,58741,999,13561,.23633E-4,.388E-5,0
STARLINK-31151,2024-005Q,2026-06-15T21:17:57.893568,15.27573923,.00014939,43.0058,25.0352,268.9771,91.0909,0,U,58742,999,13555,.7777531E-5,-.48E-6,0
STARLINK-31156,2024-005R,2026-06-16T06:48:26.661024,15.27558487,.0001272,43.0014,22.8482,274.7968,85.2738,0,U,58743,999,13557,.26861E-3,.7132E-4,0
STARLINK-31167,2024-005S,2026-06-15T21:36:43.414272,15.27569300,.0000695,43.0050,239.6641,292.3969,67.6809,0,U,58744,999,13722,.24762E-4,.419E-5,0
STARLINK-31176,2024-005T,2026-06-16T21:16:11.814240,15.27583317,.0001194,43.0014,19.6258,275.4629,84.6087,0,U,58745,999,13565,.47137E-4,.1035E-4,0
STARLINK-31181,2024-005U,2026-06-15T21:51:04.367808,15.27571751,.0001204,42.9978,232.8307,329.3835,30.6947,0,U,58746,999,13730,.62655E-4,.1462E-4,0
STARLINK-31183,2024-005V,2026-06-16T21:27:18.526752,15.27574737,.0000983,43.0028,19.6818,262.2869,97.7871,0,U,58747,999,13571,.72851E-5,-.62E-6,0
STARLINK-31165,2024-005W,2026-06-16T21:21:45.525600,15.27579254,.000074,43.0039,19.6529,265.9326,94.1441,0,U,58748,999,13561,.44099E-4,.952E-5,0
STARLINK-31160,2024-005X,2026-06-16T07:34:41.267424,15.27581339,.00003145,42.9893,23.0139,240.0078,120.0743,0,U,58749,999,13552,.47043998E-4,.1033E-4,0
STARLINK-31179,2024-005Y,2026-06-16T07:23:36.110112,15.27576676,.0001046,43.0098,23.0220,263.0107,97.0626,0,U,58750,999,13552,.26790307E-4,.475E-5,0
STARLINK-31127,2024-011A,2026-06-16T12:51:55.125216,15.30194534,.00013276,53.1628,274.5818,87.5271,272.5882,0,U,58765,999,13540,.19468195E-4,.217E-5,0
STARLINK-31114,2024-011B,2026-06-16T14:38:52.954368,15.30201843,.0001231,53.1620,272.2268,77.9381,282.1758,0,U,58766,999,13544,.40464E-4,.839E-5,0
STARLINK-31140,2024-011C,2026-06-16T20:12:39.288096,15.34377225,.0000891,53.1597,272.9356,86.3063,273.8041,0,U,58767,999,13545,.31539E-3,.10287E-3,0
STARLINK-31146,2024-011E,2026-06-16T20:00:01.999008,15.33566967,.0001474,53.1583,273.0412,77.9688,201.9391,0,U,58769,999,590,.31833E-3,.10116E-3,0
STARLINK-31143,2024-011F,2026-06-16T14:07:43.629888,15.30199257,.0001137,53.1611,274.1999,87.9276,272.1855,0,U,58770,999,13541,.45899E-4,.1E-4,0
STARLINK-31135,2024-011G,2026-06-16T14:23:41.453376,15.30199794,.0001186,53.1612,272.1600,99.6107,260.5028,0,U,58771,999,13544,.1929E-4,.212E-5,0
STARLINK-31136,2024-011H,2026-06-16T13:48:22.654944,15.34390331,.0000933,53.1616,274.1099,72.4992,287.6112,0,U,58772,999,13540,.30967E-4,.67E-5,0
STARLINK-31073,2024-011J,2026-06-16T14:30:31.233888,15.30206078,.0001053,53.1616,274.2958,82.7503,277.3618,0,U,58773,999,13541,.33597E-4,.636E-5,0
STARLINK-31122,2024-011K,2026-06-16T14:39:38.436192,15.30199046,.0001193,53.1610,274.3333,97.2634,262.8502,0,U,58774,999,13541,.36584E-4,.724E-5,0
STARLINK-31123,2024-011L,2026-06-16T14:39:45.277344,15.34414624,.0002102,53.1607,273.6272,30.6133,329.4992,0,U,58775,999,867,.8425E-3,.2821E-3,0
STARLINK-31117,2024-011M,2026-06-16T13:16:12.910080,15.30205485,.0001049,53.1609,274.6781,69.8424,290.2689,0,U,58776,999,13540,.98946E-4,.2573E-4,0
STARLINK-31132,2024-011N,2026-06-16T18:04:30.451872,15.31705017,.0001026,53.1593,182.8671,95.6305,264.4814,0,U,58777,999,13673,-.53576E-4,-.2027E-4,0
STARLINK-31120,2024-011P,2026-06-16T18:45:12.420000,15.34050043,.0001627,53.1599,273.2574,80.6946,279.4241,0,U,58778,999,13544,.52058E-2,.177745E-2,0
STARLINK-31142,2024-011Q,2026-06-16T16:21:17.154720,15.30200851,.000122,53.1605,274.0546,119.6654,240.4468,0,U,58779,999,13542,.86075E-4,.2191E-4,0
STARLINK-31099,2024-011S,2026-06-16T14:42:40.091328,15.30192951,.0000943,53.1603,274.3433,84.4382,275.6726,0,U,58781,999,13541,.23863E-3,.6713E-4,0
STARLINK-31047,2024-011U,2026-06-16T13:16:23.313504,15.34381955,.00014316,53.1617,257.8957,111.3536,248.7619,0,U,58783,999,13563,-.44911525E-4,-.1892E-4,0
STARLINK-31039,2024-011V,2026-06-16T14:33:33.726240,15.30200819,.0001097,53.1602,274.2969,98.7171,261.3954,0,U,58784,999,13541,.60937E-4,.1446E-4,0
STARLINK-31034,2024-011W,2026-06-16T17:10:51.048768,15.34381316,.0001637,53.1600,169.8227,88.7465,271.3725,0,U,58785,999,13691,.23641E-4,.422E-5,0
STARLINK-31024,2024-011X,2026-06-16T14:40:23.848032,15.30203456,.0001622,53.1610,272.2231,59.9777,300.1384,0,U,58786,999,13544,.84393E-4,.2141E-4,0
STARLINK-31189,2024-012A,2026-06-15T17:25:51.400704,15.27580583,.00031534,43.0128,331.2332,278.7110,81.3385,0,U,58787,999,13623,.28255181E-4,.515E-5,0
STARLINK-31185,2024-012B,2026-06-16T04:12:12.605760,15.27575754,.00016356,43.0083,329.4372,267.8403,92.2262,0,U,58788,999,13629,.11393169E-4,.51E-6,0
STARLINK-31166,2024-012C,2026-06-16T17:22:15.373056,15.27573843,.0001169,43.0039,325.8107,272.7691,87.3027,0,U,58789,999,13638,.15999E-4,.178E-5,0
STARLINK-31187,2024-012D,2026-06-16T04:10:22.104480,15.27567631,.0001072,43.0028,329.4291,273.8303,86.2426,0,U,58790,999,13629,-.30389645E-4,-.1098E-4,0
STARLINK-31162,2024-012E,2026-06-16T17:20:23.441856,15.27581310,.0000868,43.0046,325.8120,257.0198,103.0557,0,U,58791,999,13638,-.35946E-4,-.1251E-4,0
STARLINK-31184,2024-012G,2026-06-14T18:08:18.448512,15.27577126,.00007813,42.9985,336.8446,259.7171,100.3593,0,U,58793,999,13608,.16103113E-4,.181E-5,0
STARLINK-31192,2024-012H,2026-06-16T04:06:39.458592,15.27572019,.00015825,43.0086,329.4009,271.8726,88.1944,0,U,58794,999,13629,-.1202076E-4,-.593E-5,0
STARLINK-31161,2024-012J,2026-06-16T17:16:42.167136,15.27577164,.0000961,43.0054,325.7861,245.1130,114.9622,0,U,58795,999,13638,.15804E-4,.173E-5,0
STARLINK-31195,2024-012K,2026-06-16T04:17:45.603456,15.27573917,.00015812,43.0052,329.4623,260.1462,99.9212,0,U,58796,999,13629,.29826619E-4,.558E-5,0
STARLINK-31193,2024-012L,2026-06-16T03:22:12.382176,15.27616436,.00022558,43.0002,329.1728,274.0481,86.0113,0,U,58797,999,13629,.10774932E-3,.2707E-4,0
STARLINK-31168,2024-012M,2026-06-16T17:35:12.573024,15.27573031,.0000911,43.0085,325.8737,286.4219,73.6533,0,U,58798,999,13638,.8197E-4,.1994E-4,0
STARLINK-31191,2024-012P,2026-06-16T17:07:26.815584,15.27585664,.0001633,43.0026,325.7320,265.8520,94.2145,0,U,58800,999,13638,-.85159E-5,-.497E-5,0
STARLINK-31170,2024-012Q,2026-06-16T17:44:26.951712,15.27576968,.0001218,42.9969,325.9237,258.7563,101.3152,0,U,58801,999,13638,.85315E-4,.2086E-4,0
STARLINK-31141,2024-012S,2026-06-16T17:59:15.387360,15.27581509,.0000532,43.0091,326.0011,127.6106,232.4794,0,U,58803,999,13638,.30002E-4,.564E-5,0
STARLINK-31188,2024-012T,2026-06-16T17:50:00.534336,15.27574297,.0001234,42.9998,325.9515,270.0951,89.9759,0,U,58804,999,13638,.49591E-5,-.126E-5,0
STARLINK-31138,2024-012V,2026-06-16T17:53:41.964576,15.27579357,.0000944,43.0039,325.9668,275.3039,84.7705,0,U,58806,999,13638,.23882E-4,.395E-5,0
STARLINK-31163,2024-012W,2026-06-16T16:56:21.385248,15.27568700,.0001324,43.0012,325.6681,265.6264,94.4437,0,U,58807,999,13638,-.32726E-4,-.1162E-4,0
STARLINK-31174,2024-012X,2026-06-16T16:54:29.513664,15.27584760,.0001205,43.0084,325.6635,268.5864,91.4850,0,U,58808,999,13638,.46202E-4,.101E-4,0
STARLINK-31169,2024-012Y,2026-06-16T17:48:09.113760,15.27580695,.0001039,42.9997,325.9378,274.9854,85.0879,0,U,58809,999,13638,.41288E-4,.874E-5,0
STARLINK-31233,2024-017A,2026-06-16T13:18:28.788768,15.30199988,.0001451,53.1607,105.0530,87.5932,272.5235,0,U,58826,999,13531,-.24444E-4,-.1083E-4,0
STARLINK-31271,2024-017B,2026-06-16T02:58:05.842272,15.30208114,.00018046,53.1597,107.3399,102.9229,257.1973,0,U,58827,999,13512,.44303855E-3,.12788E-3,0
STARLINK-31222,2024-017C,2026-06-16T12:40:29.379648,15.30192797,.00014101,53.1606,104.8845,97.0095,263.1066,0,U,58828,999,13519,.71612E-5,-.147E-5,0
STARLINK-31258,2024-017D,2026-06-16T13:27:35.608320,15.30196084,.0001293,53.1612,105.0873,78.5223,281.5923,0,U,58829,999,13519,.31859E-4,.584E-5,0
STARLINK-31253,2024-017E,2026-06-16T13:27:18.285120,15.31708463,.0001178,53.1606,104.3804,79.3803,280.7331,0,U,58830,999,13520,.49195E-4,.1162E-4,0
STARLINK-31232,2024-017F,2026-06-16T13:13:53.343840,15.31684963,.0001411,53.1605,104.3185,94.2101,265.9061,0,U,58831,999,13520,-.3426E-5,-.471E-5,0
STARLINK-31263,2024-017G,2026-06-16T12:22:30.648864,15.34394441,.0001484,53.1626,94.1557,94.3281,265.7891,0,U,58832,999,13545,.737799E-6,-.351E-5,0
